STARLINK-4810           
1 53869U 22114BD  25352.12758207 -.00000814  00000+0 -33047-4 0  9995
2 53869  53.2187 279.9378 0001523  84.4952 275.6214 15.08841936180941
STARLINK-4732           
1 53870U 22114BE  25352.28309348 -.00000083  00000+0  12872-4 0  9992
2 53870  53.2187 269.5034 0001390  87.5301 272.5850 15.08839192181103
STARLINK-4740           
1 53871U 22114BF  25352.18737446  .00004580  00000+0  30558-3 0  9991
2 53871  53.2166 269.6169 0001462  86.4413 273.6746 15.08847041181099
STARLINK-5028           
1 53886U 22119A   25352.22977145 -.00001519  00000+0 -77384-4 0  9999
2 53886  53.2180 330.0397 0001471  91.7942 268.3219 15.08835889179385
STARLINK-5029           
1 53887U 22119B   25352.21871055 -.00000268  00000+0  12331-5 0  9993
2 53887  53.2191 329.9707 0001493  91.0293 269.0870 15.08841311179384
STARLINK-5034           
1 53888U 22119C   25352.22608377 -.00000257  00000+0  19480-5 0  9990
2 53888  53.2193 330.0169 0001388  91.4004 268.7147 15.08844645179385
STARLINK-5031           
1 53889U 22119D   25352.22240261 -.00001260  00000+0 -61122-4 0  9990
2 53889  53.2202 329.9940 0001546  96.4806 263.6363 15.08833770179383
STARLINK-5050           
1 53890U 22119E   25352.11701608 -.00000949  00000+0 -41565-4 0  9999
2 53890  53.2189 295.0963 0001505  91.9518 268.1647 15.08836333179868
STARLINK-5041           
1 53891U 22119F   25352.21502806  .00000934  00000+0  76760-4 0  9997
2 53891  53.2193 329.9504 0001344  82.0985 278.0160 15.08854604179380
STARLINK-5046           
1 53892U 22119G   25352.26284541 -.00000612  00000+0 -20363-4 0  9999
2 53892  53.2187 329.5346 0001372  88.4917 271.6232 15.08848401179398
STARLINK-5052           
1 53893U 22119H   25352.20861600  .00000460  00000+0  47001-4 0  9998
2 53893  53.2192 329.9072 0001647  87.0643 273.0538 15.08845913179380
STARLINK-5043           
1 53894U 22119J   25352.21134301 -.00000288  00000+0 -24366-7 0  9993
2 53894  53.2188 329.9263 0001528  81.7921 278.3245 15.08842388179382
STARLINK-5032           
1 53895U 22119K   25352.26653532 -.00000349  00000+0 -38573-5 0  9992
2 53895  53.2185 329.5584 0001397  91.4266 268.6886 15.08834581179396
STARLINK-5037           
1 53896U 22119L   25352.25916565 -.00000708  00000+0 -26409-4 0  9993
2 53896  53.2194 329.5141 0001426  88.3978 271.7178 15.08833306179397
STARLINK-5035           
1 53897U 22119M   25352.20764117  .00000792  00000+0  67868-4 0  9998
2 53897  53.2196 329.9023 0001280  78.9008 281.2128 15.08827078179389
STARLINK-5044           
1 53898U 22119N   25352.24810855 -.00000986  00000+0 -43894-4 0  9994
2 53898  53.2192 329.4446 0001409  90.7983 269.3171 15.08838708179395
