[{"OBJECT_NAME":"STARLINK-4810","OBJECT_ID":"2022-114BD","EPOCH":"2025-12-18T03:03:43.090848","MEAN_MOTION":15.08841936,"ECCENTRICITY":0.00015231,"INCLINATION":53.2187,"RA_OF_ASC_NODE":279.9378,"ARG_OF_PERICENTER":84.4952,"MEAN_ANOMALY":275.6214,"EPHEMERIS_TYPE":0,"CLASSIFICATION_TYPE":"U","NORAD_CAT_ID":53869,"ELEMENT_SET_NO":999,"REV_AT_EPOCH":18094,"BSTAR":-3.30473e-5,"MEAN_MOTION_DOT":-8.14e-6,"MEAN_MOTION_DDOT":0},{"OBJECT_NAME":"STARLINK-4732","OBJECT_ID":"2022-114BE","EPOCH":"2025-12-18T06:47:39.276672","MEAN_MOTION":15.08839192,"ECCENTRICITY":0.00013902,"INCLINATION":53.2187,"RA_OF_ASC_NODE":269.5034,"ARG_OF_PERICENTER":87.5301,"MEAN_ANOMALY":272.585,"EPHEMERIS_TYPE":0,"CLASSIFICATION_TYPE":"U","NORAD_CAT_ID":53870,"ELEMENT_SET_NO":999,"REV_AT_EPOCH":18110,"BSTAR":1.2872296e-5,"MEAN_MOTION_DOT":-8.3e-7,"MEAN_MOTION_DDOT":0},{"OBJECT_NAME":"STARLINK-4740","OBJECT_ID":"2022-114BF","EPOCH":"2025-12-18T04:29:49.153344","MEAN_MOTION":15.08847041,"ECCENTRICITY":0.00014627,"INCLINATION":53.2166,"RA_OF_ASC_NODE":269.6169,"ARG_OF_PERICENTER":86.4413,"MEAN_ANOMALY":273.6746,"EPHEMERIS_TYPE":0,"CLASSIFICATION_TYPE":"U","NORAD_CAT_ID":53871,"ELEMENT_SET_NO":999,"REV_AT_EPOCH":18109,"BSTAR":0.00030558266,"MEAN_MOTION_DOT":4.58e-5,"MEAN_MOTION_DDOT":0},{"OBJECT_NAME":"STARLINK-5028","OBJECT_ID":"2022-119A","EPOCH":"2025-12-18T05:30:52.253280","MEAN_MOTION":15.08835889,"ECCENTRICITY":0.00014717,"INCLINATION":53.218,"RA_OF_ASC_NODE":330.0397,"ARG_OF_PERICENTER":91.7942,"MEAN_ANOMALY":268.3219,"EPHEMERIS_TYPE":0,"CLASSIFICATION_TYPE":"U","NORAD_CAT_ID":53886,"ELEMENT_SET_NO":999,"REV_AT_EPOCH":17938,"BSTAR":-7.738436e-5,"MEAN_MOTION_DOT":-1.519e-5,"MEAN_MOTION_DDOT":0},{"OBJECT_NAME":"STARLINK-5029","OBJECT_ID":"2022-119B","EPOCH":"2025-12-18T05:14:56.591520","MEAN_MOTION":15.08841311,"ECCENTRICITY":0.00014931,"INCLINATION":53.2191,"RA_OF_ASC_NODE":329.9707,"ARG_OF_PERICENTER":91.0293,"MEAN_ANOMALY":269.087,"EPHEMERIS_TYPE":0,"CLASSIFICATION_TYPE":"U","NORAD_CAT_ID":53887,"ELEMENT_SET_NO":999,"REV_AT_EPOCH":17938,"BSTAR":1.233083e-6,"MEAN_MOTION_DOT":-2.68e-6,"MEAN_MOTION_DDOT":0},{"OBJECT_NAME":"STARLINK-5034","OBJECT_ID":"2022-119C","EPOCH":"2025-12-18T05:25:33.637728","MEAN_MOTION":15.08844645,"ECCENTRICITY":0.00013884,"INCLINATION":53.2193,"RA_OF_ASC_NODE":330.0169,"ARG_OF_PERICENTER":91.4004,"MEAN_ANOMALY":268.7147,"EPHEMERIS_TYPE":0,"CLASSIFICATION_TYPE":"U","NORAD_CAT_ID":53888,"ELEMENT_SET_NO":999,"REV_AT_EPOCH":17938,"BSTAR":1.947977e-6,"MEAN_MOTION_DOT":-2.57e-6,"MEAN_MOTION_DDOT":0},{"OBJECT_NAME":"STARLINK-5031","OBJECT_ID":"2022-119D","EPOCH":"2025-12-18T05:20:15.585504","MEAN_MOTION":15.0883377,"ECCENTRICITY":0.00015469,"INCLINATION":53.2202,"RA_OF_ASC_NODE":329.994,"ARG_OF_PERICENTER":96.4806,"MEAN_ANOMALY":263.6363,"EPHEMERIS_TYPE":0,"CLASSIFICATION_TYPE":"U","NORAD_CAT_ID":53889,"ELEMENT_SET_NO":999,"REV_AT_EPOCH":17938,"BSTAR":-6.1121652e-5,"MEAN_MOTION_DOT":-1.26e-5,"MEAN_MOTION_DDOT":0},{"OBJECT_NAME":"STARLINK-5050","OBJECT_ID":"2022-119E","EPOCH":"2025-12-18T02:48:30.189312","MEAN_MOTION":15.08836333,"ECCENTRICITY":0.00015053,"INCLINATION":53.2189,"RA_OF_ASC_NODE":295.0963,"ARG_OF_PERICENTER":91.9518,"MEAN_ANOMALY":268.1647,"EPHEMERIS_TYPE":0,"CLASSIFICATION_TYPE":"U","NORAD_CAT_ID":53890,"ELEMENT_SET_NO":999,"REV_AT_EPOCH":17986,"BSTAR":-4.156453e-5,"MEAN_MOTION_DOT":-9.49e-6,"MEAN_MOTION_DDOT":0},{"OBJECT_NAME":"STARLINK-5041","OBJECT_ID":"2022-119F","EPOCH":"2025-12-18T05:09:38.424384","MEAN_MOTION":15.08854604,"ECCENTRICITY":0.00013449,"INCLINATION":53.2193,"RA_OF_ASC_NODE":329.9504,"ARG_OF_PERICENTER":82.0985,"MEAN_ANOMALY":278.016,"EPHEMERIS_TYPE":0,"CLASSIFICATION_TYPE":"U","NORAD_CAT_ID":53891,"ELEMENT_SET_NO":999,"REV_AT_EPOCH":17938,"BSTAR":7.6760092e-5,"MEAN_MOTION_DOT":9.34e-6,"MEAN_MOTION_DDOT":0},{"OBJECT_NAME":"STARLINK-5046","OBJECT_ID":"2022-119G","EPOCH":"2025-12-18T06:18:29.843424","MEAN_MOTION":15.08848401,"ECCENTRICITY":0.00013721,"INCLINATION":53.2187,"RA_OF_ASC_NODE":329.5346,"ARG_OF_PERICENTER":88.4917,"MEAN_ANOMALY":271.6232,"EPHEMERIS_TYPE":0,"CLASSIFICATION_TYPE":"U","NORAD_CAT_ID":53892,"ELEMENT_SET_NO":999,"REV_AT_EPOCH":17939,"BSTAR":-2.0363156e-5,"MEAN_MOTION_DOT":-6.12e-6,"MEAN_MOTION_DDOT":0},{"OBJECT_NAME":"STARLINK-5052","OBJECT_ID":"2022-119H","EPOCH":"2025-12-18T05:00:24.422400","MEAN_MOTION":15.08845913,"ECCENTRICITY":0.00016473,"INCLINATION":53.2192,"RA_OF_ASC_NODE":329.9072,"ARG_OF_PERICENTER":87.0643,"MEAN_ANOMALY":273.0538,"EPHEMERIS_TYPE":0,"CLASSIFICATION_TYPE":"U","NORAD_CAT_ID":53893,"ELEMENT_SET_NO":999,"REV_AT_EPOCH":17938,"BSTAR":4.700111e-5,"MEAN_MOTION_DOT":4.6e-6,"MEAN_MOTION_DDOT":0},{"OBJECT_NAME":"STARLINK-5043","OBJECT_ID":"2022-119J","EPOCH":"2025-12-18T05:04:20.036064","MEAN_MOTION":15.08842388,"ECCENTRICITY":0.00015287,"INCLINATION":53.2188,"RA_OF_ASC_NODE":329.9263,"ARG_OF_PERICENTER":81.7921,"MEAN_ANOMALY":278.3245,"EPHEMERIS_TYPE":0,"CLASSIFICATION_TYPE":"U","NORAD_CAT_ID":53894,"ELEMENT_SET_NO":999,"REV_AT_EPOCH":17938,"BSTAR":-2.4366e-8,"MEAN_MOTION_DOT":-2.88e-6,"MEAN_MOTION_DDOT":0},{"OBJECT_NAME":"STARLINK-5032","OBJECT_ID":"2022-119K","EPOCH":"2025-12-18T06:23:48.651648","MEAN_MOTION":15.08834581,"ECCENTRICITY":0.00013978,"INCLINATION":53.2185,"RA_OF_ASC_NODE":329.5584,"ARG_OF_PERICENTER":91.4266,"MEAN_ANOMALY":268.6886,"EPHEMERIS_TYPE":0,"CLASSIFICATION_TYPE":"U","NORAD_CAT_ID":53895,"ELEMENT_SET_NO":999,"REV_AT_EPOCH":17939,"BSTAR":-3.857331e-6,"MEAN_MOTION_DOT":-3.49e-6,"MEAN_MOTION_DDOT":0},{"OBJECT_NAME":"STARLINK-5037","OBJECT_ID":"2022-119L","EPOCH":"2025-12-18T06:13:11.912160","MEAN_MOTION":15.08833306,"ECCENTRICITY":0.00014269,"INCLINATION":53.2194,"RA_OF_ASC_NODE":329.5141,"ARG_OF_PERICENTER":88.3978,"MEAN_ANOMALY":271.7178,"EPHEMERIS_TYPE":0,"CLASSIFICATION_TYPE":"U","NORAD_CAT_ID":53896,"ELEMENT_SET_NO":999,"REV_AT_EPOCH":17939,"BSTAR":-2.6408587e-5,"MEAN_MOTION_DOT":-7.08e-6,"MEAN_MOTION_DDOT":0},{"OBJECT_NAME":"STARLINK-5035","OBJECT_ID":"2022-119M","EPOCH":"2025-12-18T04:59:00.197088","MEAN_MOTION":15.08827078,"ECCENTRICITY":0.00012803,"INCLINATION":53.2196,"RA_OF_ASC_NODE":329.9023,"ARG_OF_PERICENTER":78.9008,"MEAN_ANOMALY":281.2128,"EPHEMERIS_TYPE":0,"CLASSIFICATION_TYPE":"U","NORAD_CAT_ID":53897,"ELEMENT_SET_NO":999,"REV_AT_EPOCH":17938,"BSTAR":6.7868269e-5,"MEAN_MOTION_DOT":7.92e-6,"MEAN_MOTION_DDOT":0},{"OBJECT_NAME":"STARLINK-5044","OBJECT_ID":"2022-119N","EPOCH":"2025-12-18T05:57:16.578720","MEAN_MOTION":15.08838708,"ECCENTRICITY":0.00014091,"INCLINATION":53.2192,"RA_OF_ASC_NODE":329.4446,"ARG_OF_PERICENTER":90.7983,"MEAN_ANOMALY":269.3171,"EPHEMERIS_TYPE":0,"CLASSIFICATION_TYPE":"U","NORAD_CAT_ID":53898,"ELEMENT_SET_NO":999,"REV_AT_EPOCH":17939,"BSTAR":-4.3893733e-5,"MEAN_MOTION_DOT":-9.86e-6,"MEAN_MOTION_DDOT":0}]
